IRIDIUM 116             
1 43072U 17083C   24201.87864672  .00000153  00000+0  47472-4 0  9998
2 43072  86.3945 253.3961 0002274  91.2500 268.8956 14.34216873344222
IRIDIUM 130             
1 43073U 17083D   24201.84693489  .00000009  00000+0 -38545-5 0  9995
2 43073  86.3954 253.6169 0002206  91.5353 268.6096 14.34217688344161
IRIDIUM 151             
1 43074U 17083E   24201.40295105  .00000122  00000+0  36676-4 0  9998
2 43074  86.3948 253.6371 0002091  95.1690 264.9744 14.34218845344127
IRIDIUM 134             
1 43075U 17083F   24201.85961854  .00000108  00000+0  31470-4 0  9990
2 43075  86.3949 253.4446 0002325  88.6376 271.5086 14.34216894344156
IRIDIUM 137             
1 43076U 17083G   24201.87230006  .00000574  00000+0  19785-3 0  9992
2 43076  86.3950 253.5180 0001806  86.0666 274.0736 14.34215712344228
IRIDIUM 141             
1 43077U 17083H   24201.86596680  .00000069  00000+0  17747-4 0  9991
2 43077  86.3945 253.3911 0002322  97.5900 262.5560 14.34214559344220
IRIDIUM 153             
1 43078U 17083J   24201.46928458  .00000321  00000+0  10753-3 0  9990
2 43078  86.3964 222.0278 0002423 105.3354 254.8110 14.34222827345272
IRIDIUM 131             
1 43079U 17083K   24201.64396851  .00000126  00000+0  38089-4 0  9993
2 43079  86.3951 253.6233 0002083  93.6816 266.4618 14.34215577344123
